ONEWEB-0492             
1 54114U 22138B   25359.91847826  .00000058  00000+0  11175-3 0  9990
2 54114  87.9209 339.4472 0001685  78.1038 282.0284 13.19726742153985
ONEWEB-0495             
1 54115U 22138C   25359.44147546  .00000113  00000+0  25044-3 0  9993
2 54115  87.9206 339.5453 0002156  67.6130 292.5231 13.19725036153908
ONEWEB-0497             
1 54116U 22138D   25359.45411293  .00000072  00000+0  14723-3 0  9994
2 54116  87.9214 339.5297 0001838  82.2381 277.8960 13.19725398153895
ONEWEB-0499             
1 54117U 22138E   25359.96823756  .00000039  00000+0  64197-4 0  9996
2 54117  87.9205 339.4403 0002010  82.9046 277.2316 13.19726839153971
ONEWEB-0500             
1 54118U 22138F   25359.89480368  .00000042  00000+0  72302-4 0  9998
2 54118  87.9211 339.4429 0001737  84.7366 275.3965 13.19725217153975
ONEWEB-0501             
1 54119U 22138G   25359.92481625  .00000106  00000+0  23265-3 0  9994
2 54119  87.9215 339.4355 0002037  78.5230 281.6131 13.19726111153950
ONEWEB-0502             
1 54120U 22138H   25359.91059187  .00000038  00000+0  61479-4 0  9993
2 54120  87.9213 339.4210 0002050  76.9794 283.1568 13.19725766153970
ONEWEB-0503             
1 54121U 22138J   25359.97535249  .00000058  00000+0  11226-3 0  9994
2 54121  87.9210 339.4124 0002036  88.9957 271.1409 13.19725343153972
